start=new Date('2022-05-12T00:00:00.000Z').valueOf();
sats=[{"ELEMENT_SET_NO":"999","SITE":"AFWTR","INCLINATION":"53.2209","TLE_LINE1":"1 50198U 21125AU  22131.91667824 -.00016182  00000-0 -10007-2 0  9996","BSTAR":"-0.00100070000000","EPOCH":"2022-05-11T22:00:00.999936","ARG_OF_PERICENTER":"51.0951","LAUNCH_DATE":"2021-12-18","FILE":"3441154","COUNTRY_CODE":"US","SEMIMAJOR_AXIS":"6917.861","PERIOD":"95.437","OBJECT_TYPE":"PAYLOAD","TLE_LINE2":"2 50198  53.2209  33.9603 0001944  51.0951 148.9371 15.08846260  1306","OBJECT_ID":"2021-125AU","CENTER_NAME":"EARTH","MEAN_MOTION_DOT":"-0.00016182","APOAPSIS":"541.071","GP_ID":"203310698","OBJECT_NAME":"STARLINK-3264","TIME_SYSTEM":"UTC","MEAN_MOTION_DDOT":"0.0000000000000","EPHEMERIS_TYPE":"0","DECAY_DATE":null,"REF_FRAME":"TEME","ECCENTRICITY":"0.00019440","RA_OF_ASC_NODE":"33.9603","REV_AT_EPOCH":"130","RCS_SIZE":"LARGE","MEAN_ELEMENT_THEORY":"SGP4","PERIAPSIS":"538.381","CLASSIFICATION_TYPE":"U","NORAD_CAT_ID":"50198","MEAN_MOTION":"15.08846260","MEAN_ANOMALY":"148.9371"},{"INCLINATION":"53.2153","TLE_LINE1":"1 50199U 21125AV  22131.91667824 -.00018132  00000-0 -11233-2 0  9996","SITE":"AFWTR","ELEMENT_SET_NO":"999","SEMIMAJOR_AXIS":"6917.813","COUNTRY_CODE":"US","FILE":"3441154","LAUNCH_DATE":"2021-12-18","ARG_OF_PERICENTER":"48.1092","EPOCH":"2022-05-11T22:00:00.999936","BSTAR":"-0.00112330000000","MEAN_MOTION_DOT":"-0.00018132","TLE_LINE2":"2 50199  53.2153  33.9656 0002071  48.1092 251.9522 15.08861973  1309","OBJECT_ID":"2021-125AV","CENTER_NAME":"EARTH","OBJECT_TYPE":"PAYLOAD","PERIOD":"95.436","OBJECT_NAME":"STARLINK-3270","GP_ID":"203311950","APOAPSIS":"541.111","MEAN_MOTION_DDOT":"0.0000000000000","TIME_SYSTEM":"UTC","ECCENTRICITY":"0.00020710","REF_FRAME":"TEME","DECAY_DATE":null,"EPHEMERIS_TYPE":"0","PERIAPSIS":"538.246","MEAN_ELEMENT_THEORY":"SGP4","RCS_SIZE":"LARGE","REV_AT_EPOCH":"130","RA_OF_ASC_NODE":"33.9656","MEAN_MOTION":"15.08861973","MEAN_ANOMALY":"251.9522","NORAD_CAT_ID":"50199","CLASSIFICATION_TYPE":"U"},{"SITE":"AFWTR","TLE_LINE1":"1 50200U 21125AW  22131.91667824 -.00017743  00000-0 -10992-2 0  9997","INCLINATION":"53.2189","ELEMENT_SET_NO":"999","LAUNCH_DATE":"2021-12-18","FILE":"3441154","SEMIMAJOR_AXIS":"6917.858","COUNTRY_CODE":"US","EPOCH":"2022-05-11T22:00:00.999936","ARG_OF_PERICENTER":"46.8981","BSTAR":"-0.00109920000000","MEAN_MOTION_DOT":"-0.00017743","OBJECT_ID":"2021-125AW","TLE_LINE2":"2 50200  53.2189  33.9565 0001850  46.8981 113.1453 15.08847294  1308","CENTER_NAME":"EARTH","PERIOD":"95.437","OBJECT_TYPE":"PAYLOAD","OBJECT_NAME":"STARLINK-3235","APOAPSIS":"541.003","GP_ID":"203311694","TIME_SYSTEM":"UTC","MEAN_MOTION_DDOT":"0.0000000000000","REF_FRAME":"TEME","ECCENTRICITY":"0.00018500","DECAY_DATE":null,"EPHEMERIS_TYPE":"0","PERIAPSIS":"538.443","MEAN_ELEMENT_THEORY":"SGP4","RA_OF_ASC_NODE":"33.9565","RCS_SIZE":"LARGE","REV_AT_EPOCH":"130","MEAN_ANOMALY":"113.1453","MEAN_MOTION":"15.08847294","NORAD_CAT_ID":"50200","CLASSIFICATION_TYPE":"U"},{"LAUNCH_DATE":"2021-12-18","FILE":"3441154","SEMIMAJOR_AXIS":"6917.884","COUNTRY_CODE":"US","EPOCH":"2022-05-11T22:00:00.999936","ARG_OF_PERICENTER":"52.9629","BSTAR":"-0.00088738000000","SITE":"AFWTR","TLE_LINE1":"1 50201U 21125AX  22131.91667824 -.00014383  00000-0 -88738-3 0  9999","INCLINATION":"53.2210","ELEMENT_SET_NO":"999","OBJECT_NAME":"STARLINK-3255","APOAPSIS":"541.040","GP_ID":"203310449","MEAN_MOTION_DOT":"-0.00014383","OBJECT_ID":"2021-125AX","TLE_LINE2":"2 50201  53.2210  33.9601 0001866  52.9629 167.1375 15.08838681  1301","CENTER_NAME":"EARTH","PERIOD":"95.438","OBJECT_TYPE":"PAYLOAD","REF_FRAME":"TEME","ECCENTRICITY":"0.00018660","DECAY_DATE":null,"EPHEMERIS_TYPE":"0","TIME_SYSTEM":"UTC","MEAN_MOTION_DDOT":"0.0000000000000","MEAN_MOTION":"15.08838681","MEAN_ANOMALY":"167.1375","NORAD_CAT_ID":"50201","CLASSIFICATION_TYPE":"U","PERIAPSIS":"538.459","MEAN_ELEMENT_THEORY":"SGP4","RA_OF_ASC_NODE":"33.9601","RCS_SIZE":"LARGE","REV_AT_EPOCH":"130"},{"MEAN_MOTION":"15.08841404","MEAN_ANOMALY":"270.1601","CLASSIFICATION_TYPE":"U","NORAD_CAT_ID":"50202","PERIAPSIS":"538.315","MEAN_ELEMENT_THEORY":"SGP4","RA_OF_ASC_NODE":"33.9672","RCS_SIZE":"LARGE","REV_AT_EPOCH":"130","REF_FRAME":"TEME","ECCENTRICITY":"0.00020610","DECAY_DATE":null,"EPHEMERIS_TYPE":"0","TIME_SYSTEM":"UTC","MEAN_MOTION_DDOT":"0.0000000000000","OBJECT_NAME":"STARLINK-3256","APOAPSIS":"541.167","GP_ID":"203311199","MEAN_MOTION_DOT":"-0.00024230","OBJECT_ID":"2021-125AY","TLE_LINE2":"2 50202  53.2162  33.9672 0002061  49.9323 270.1601 15.08841404  1305","CENTER_NAME":"EARTH","PERIOD":"95.437","OBJECT_TYPE":"PAYLOAD","LAUNCH_DATE":"2021-12-18","FILE":"3441154","SEMIMAJOR_AXIS":"6917.876","COUNTRY_CODE":"US","ARG_OF_PERICENTER":"49.9323","EPOCH":"2022-05-11T22:00:00.999936","BSTAR":"-0.00150930000000","SITE":"AFWTR","INCLINATION":"53.2162","TLE_LINE1":"1 50202U 21125AY  22131.91667824 -.00024230  00000-0 -15093-2 0  9995","ELEMENT_SET_NO":"999"},{"ELEMENT_SET_NO":"999","SITE":"AFWTR","TLE_LINE1":"1 50203U 21125AZ  22131.91667824 -.00017481  00000-0 -10825-2 0  9994","INCLINATION":"53.2212","ARG_OF_PERICENTER":"53.9840","EPOCH":"2022-05-11T22:00:00.999936","BSTAR":"-0.00108250000000","FILE":"3441154","LAUNCH_DATE":"2021-12-18","SEMIMAJOR_AXIS":"6917.840","COUNTRY_CODE":"US","PERIOD":"95.437","OBJECT_TYPE":"PAYLOAD","MEAN_MOTION_DOT":"-0.00017481","TLE_LINE2":"2 50203  53.2212  33.9612 0001918  53.9840 126.0732 15.08853190  1304","OBJECT_ID":"2021-125AZ","CENTER_NAME":"EARTH","APOAPSIS":"541.032","GP_ID":"203311450","OBJECT_NAME":"STARLINK-3257","TIME_SYSTEM":"UTC","MEAN_MOTION_DDOT":"0.0000000000000","DECAY_DATE":null,"EPHEMERIS_TYPE":"0","REF_FRAME":"TEME","ECCENTRICITY":"0.00019180","RA_OF_ASC_NODE":"33.9612","RCS_SIZE":"LARGE","REV_AT_EPOCH":"130","PERIAPSIS":"538.378","MEAN_ELEMENT_THEORY":"SGP4","MEAN_ANOMALY":"126.0732","MEAN_MOTION":"15.08853190","NORAD_CAT_ID":"50203","CLASSIFICATION_TYPE":"U"},{"MEAN_MOTION_DDOT":"0.0000000000000","TIME_SYSTEM":"UTC","EPHEMERIS_TYPE":"0","DECAY_DATE":null,"ECCENTRICITY":"0.00018050","REF_FRAME":"TEME","REV_AT_EPOCH":"130","RCS_SIZE":"LARGE","RA_OF_ASC_NODE":"33.9565","PERIAPSIS":"538.411","MEAN_ELEMENT_THEORY":"SGP4","NORAD_CAT_ID":"50204","CLASSIFICATION_TYPE":"U","MEAN_ANOMALY":"232.7347","MEAN_MOTION":"15.08868135","ELEMENT_SET_NO":"999","INCLINATION":"53.2196","TLE_LINE1":"1 50204U 21125BA  22131.91667824 -.00038056  00000-0 -23838-2 0  9994","SITE":"AFWTR","BSTAR":"-0.00238380000000","ARG_OF_PERICENTER":"47.3372","EPOCH":"2022-05-11T22:00:00.999936","COUNTRY_CODE":"US","SEMIMAJOR_AXIS":"6917.794","FILE":"3441154","LAUNCH_DATE":"2021-12-18","OBJECT_TYPE":"PAYLOAD","PERIOD":"95.436","TLE_LINE2":"2 50204  53.2196  33.9565 0001805  47.3372 232.7347 15.08868135  1307","OBJECT_ID":"2021-125BA","CENTER_NAME":"EARTH","MEAN_MOTION_DOT":"-0.00038056","GP_ID":"203312195","APOAPSIS":"540.908","OBJECT_NAME":"STARLINK-3254"},{"MEAN_MOTION_DDOT":"0.0000000000000","TIME_SYSTEM":"UTC","ECCENTRICITY":"0.00012610","REF_FRAME":"TEME","EPHEMERIS_TYPE":"0","DECAY_DATE":null,"MEAN_ELEMENT_THEORY":"SGP4","PERIAPSIS":"405.134","REV_AT_EPOCH":"130","RCS_SIZE":"LARGE","RA_OF_ASC_NODE":"8.3442","CLASSIFICATION_TYPE":"U","NORAD_CAT_ID":"50205","MEAN_MOTION":"15.53681847","MEAN_ANOMALY":"336.5820","INCLINATION":"53.2176","TLE_LINE1":"1 50205U 21125BB  22131.91667824 -.00715066  00000-0 -12019-1 0  9996","SITE":"AFWTR","ELEMENT_SET_NO":"999","COUNTRY_CODE":"US","SEMIMAJOR_AXIS":"6784.124","LAUNCH_DATE":"2021-12-18","FILE":"3441154","BSTAR":"-0.01201900000000","EPOCH":"2022-05-11T22:00:00.999936","ARG_OF_PERICENTER":"54.8423","TLE_LINE2":"2 50205  53.2176   8.3442 0001261  54.8423 336.5820 15.53681847  1304","OBJECT_ID":"2021-125BB","CENTER_NAME":"EARTH","MEAN_MOTION_DOT":"-0.00715066","OBJECT_TYPE":"PAYLOAD","PERIOD":"92.683","OBJECT_NAME":"STARLINK-3260","GP_ID":"203310950","APOAPSIS":"406.845"},{"MEAN_ANOMALY":"209.9163","MEAN_MOTION":"15.08861451","NORAD_CAT_ID":"50206","CLASSIFICATION_TYPE":"U","RA_OF_ASC_NODE":"33.9555","RCS_SIZE":"LARGE","REV_AT_EPOCH":"130","MEAN_ELEMENT_THEORY":"SGP4","PERIAPSIS":"538.345","DECAY_DATE":null,"EPHEMERIS_TYPE":"0","REF_FRAME":"TEME","ECCENTRICITY":"0.00019300","TIME_SYSTEM":"UTC","MEAN_MOTION_DDOT":"0.0000000000000","APOAPSIS":"541.015","GP_ID":"203310699","OBJECT_NAME":"STARLINK-3258","PERIOD":"95.436","OBJECT_TYPE":"PAYLOAD","MEAN_MOTION_DOT":"-0.00015731","OBJECT_ID":"2021-125BC","TLE_LINE2":"2 50206  53.2195  33.9555 0001930  50.1408 209.9163 15.08861451  1304","CENTER_NAME":"EARTH","EPOCH":"2022-05-11T22:00:00.999936","ARG_OF_PERICENTER":"50.1408","BSTAR":"-0.00097184000000","FILE":"3441154","LAUNCH_DATE":"2021-12-18","SEMIMAJOR_AXIS":"6917.815","COUNTRY_CODE":"US","ELEMENT_SET_NO":"999","SITE":"AFWTR","INCLINATION":"53.2195","TLE_LINE1":"1 50206U 21125BC  22131.91667824 -.00015731  00000-0 -97184-3 0  9997"},{"OBJECT_NAME":"STARLINK-3262","APOAPSIS":"541.179","GP_ID":"203311951","TLE_LINE2":"2 50207  53.2192  33.9555 0002124  47.8906 192.1686 15.08851776  1306","OBJECT_ID":"2021-125BD","CENTER_NAME":"EARTH","MEAN_MOTION_DOT":"-0.00014497","PERIOD":"95.437","OBJECT_TYPE":"PAYLOAD","FILE":"3441154","LAUNCH_DATE":"2021-12-18","COUNTRY_CODE":"US","SEMIMAJOR_AXIS":"6917.844","BSTAR":"-0.00089425000000","ARG_OF_PERICENTER":"47.8906","EPOCH":"2022-05-11T22:00:00.999936","SITE":"AFWTR","INCLINATION":"53.2192","TLE_LINE1":"1 50207U 21125BD  22131.91667824 -.00014497  00000-0 -89425-3 0  9995","ELEMENT_SET_NO":"999","NORAD_CAT_ID":"50207","CLASSIFICATION_TYPE":"U","MEAN_MOTION":"15.08851776","MEAN_ANOMALY":"192.1686","PERIAPSIS":"538.240","MEAN_ELEMENT_THEORY":"SGP4","RA_OF_ASC_NODE":"33.9555","REV_AT_EPOCH":"130","RCS_SIZE":"LARGE","REF_FRAME":"TEME","ECCENTRICITY":"0.00021240","EPHEMERIS_TYPE":"0","DECAY_DATE":null,"TIME_SYSTEM":"UTC","MEAN_MOTION_DDOT":"0.0000000000000"}];
